0 FENGYUN 1C DEB
1 31661U 99025CBT 13280.94557132  .00001249  00000-0  75883-3 0  8889
2 31661 099.0679 270.0301 0072467 192.5511 197.5927 14.06859392329496
0 FENGYUN 1C DEB
1 31661U 99025CBT 13283.23983216  .00001595  00000-0  96120-3 0  8892
2 31661 099.0681 272.3307 0072667 186.1703 297.3333 14.06866806329818
0 FENGYUN 1C DEB
1 31661U 99025CBT 13285.45050868  .00001586  00000-0  95586-3 0  8903
2 31661 099.0682 274.5473 0072797 179.9750 333.8409 14.06873039330125
0 FENGYUN 1C DEB
1 31661U 99025CBT 13288.43846620  .00001942  00000-0  11638-2 0  8915
2 31661 099.0680 277.5423 0072954 171.5960 347.1697 14.06886832330545
0 FENGYUN 1C DEB
1 31661U 99025CBT 13291.69011267  .00001451  00000-0  87581-3 0  8925
2 31661 099.0686 280.8021 0073119 162.4538 256.2152 14.06899791331002
0 FENGYUN 1C DEB
1 31661U 99025CBT 13293.95959262  .00001566  00000-0  94303-3 0  8930
2 31661 099.0689 283.0779 0073261 156.1438 230.7711 14.06907117331322
